HIMAWARI-8              
1 40267U 14060A   23297.59833147 -.00000281  00000+0  00000+0 0  9993
2 40267   0.0398  80.4615 0000907 111.1168 197.2431  1.00272078 33066
